[
    {
        "Altitude(m)": 713905.3143487776,
        "Argument of Periapsis(deg)": 0.005695060593313534,
        "Eccentricity": 0.0,
        "Inclination(deg)": 45.0,
        "Latitude(deg)": -35.504138274370845,
        "Longitude(deg)": -165.17144714221533,
        "Mean Anomaly(deg)": 234.85750832374043,
        "RAAN(deg)": 69.9946240292709,
        "Satellite Name": "Constellation 1 322",
        "Satellite Number": 322,
        "Semi-Major Axis(m)": 7083131.272910544,
        "Time(s)": 95
    },
    {
        "Altitude(m)": 713917.6373595883,
        "Argument of Periapsis(deg)": 0.00575500859955894,
        "Eccentricity": 0.0,
        "Inclination(deg)": 45.0,
        "Latitude(deg)": -35.53440693941611,
        "Longitude(deg)": -165.11114946052126,
        "Mean Anomaly(deg)": 234.91820946399037,
        "RAAN(deg)": 69.99456744010533,
        "Satellite Name": "Constellation 1 322",
        "Satellite Number": 322,
        "Semi-Major Axis(m)": 7083131.272910544,
        "Time(s)": 96
    },
    {
        "Altitude(m)": 713929.9484442549,
        "Argument of Periapsis(deg)": 0.005814956605804345,
        "Eccentricity": 0.0,
        "Inclination(deg)": 45.0,
        "Latitude(deg)": -35.56464098678317,
        "Longitude(deg)": -165.05080338470978,
        "Mean Anomaly(deg)": 234.97891060424018,
        "RAAN(deg)": 69.99451085093975,
        "Satellite Name": "Constellation 1 322",
        "Satellite Number": 322,
        "Semi-Major Axis(m)": 7083131.272910544,
        "Time(s)": 97
    },
    {
        "Altitude(m)": 713942.2475584883,
        "Argument of Periapsis(deg)": 0.00587490461204975,
        "Eccentricity": 0.0,
        "Inclination(deg)": 45.0,
        "Latitude(deg)": -35.59484035302168,
        "Longitude(deg)": -164.9904090479224,
        "Mean Anomaly(deg)": 235.03961174449012,
        "RAAN(deg)": 69.99445426177418,
        "Satellite Name": "Constellation 1 322",
        "Satellite Number": 322,
        "Semi-Major Axis(m)": 7083131.272910544,
        "Time(s)": 98
    },
    {
        "Altitude(m)": 713954.5346580358,
        "Argument of Periapsis(deg)": 0.005934852618295156,
        "Eccentricity": 0.0,
        "Inclination(deg)": 45.0,
        "Latitude(deg)": -35.62500497462223,
        "Longitude(deg)": -164.92996641542604,
        "Mean Anomaly(deg)": 235.10031288474002,
        "RAAN(deg)": 69.99439767260863,
        "Satellite Name": "Constellation 1 322",
        "Satellite Number": 322,
        "Semi-Major Axis(m)": 7083131.272910544,
        "Time(s)": 99
    },
    {
        "Altitude(m)": 713966.8096986806,
        "Argument of Periapsis(deg)": 0.005994800624540561,
        "Eccentricity": 0.0,
        "Inclination(deg)": 45.0,
        "Latitude(deg)": -35.65513478801651,
        "Longitude(deg)": -164.869475452711,
        "Mean Anomaly(deg)": 235.1610140249899,
        "RAAN(deg)": 69.99434108344305,
        "Satellite Name": "Constellation 1 322",
        "Satellite Number": 322,
        "Semi-Major Axis(m)": 7083131.272910544,
        "Time(s)": 100
    },
    {
        "Altitude(m)": 713979.0726362538,
        "Argument of Periapsis(deg)": 0.006054748630785968,
        "Eccentricity": 0.0,
        "Inclination(deg)": 45.0,
        "Latitude(deg)": -35.68522972957723,
        "Longitude(deg)": -164.80893612549247,
        "Mean Anomaly(deg)": 235.22171516523983,
        "RAAN(deg)": 69.99428449427748,
        "Satellite Name": "Constellation 1 322",
        "Satellite Number": 322,
        "Semi-Major Axis(m)": 7083131.272910544,
        "Time(s)": 101
    },
    {
        "Altitude(m)": 713991.3234266137,
        "Argument of Periapsis(deg)": 0.006114696637031373,
        "Eccentricity": 0.0,
        "Inclination(deg)": 45.0,
        "Latitude(deg)": -35.71528973561862,
        "Longitude(deg)": -164.74834839971166,
        "Mean Anomaly(deg)": 235.28241630548973,
        "RAAN(deg)": 69.9942279051119,
        "Satellite Name": "Constellation 1 322",
        "Satellite Number": 322,
        "Semi-Major Axis(m)": 7083131.272910544,
        "Time(s)": 102
    },
    {
        "Altitude(m)": 714003.562025657,
        "Argument of Periapsis(deg)": 0.006174644643276778,
        "Eccentricity": 0.0,
        "Inclination(deg)": 45.0,
        "Latitude(deg)": -35.74531474239625,
        "Longitude(deg)": -164.68771224153753,
        "Mean Anomaly(deg)": 235.34311744573964,
        "RAAN(deg)": 69.99417131594635,
        "Satellite Name": "Constellation 1 322",
        "Satellite Number": 322,
        "Semi-Major Axis(m)": 7083131.272910544,
        "Time(s)": 103
    },
    {
        "Altitude(m)": 714015.7883893369,
        "Argument of Periapsis(deg)": 0.006234592649522184,
        "Eccentricity": 0.0,
        "Inclination(deg)": 45.0,
        "Latitude(deg)": -35.77530468610742,
        "Longitude(deg)": -164.62702778546446,
        "Mean Anomaly(deg)": 235.4038185859895,
        "RAAN(deg)": 69.99411472678077,
        "Satellite Name": "Constellation 1 322",
        "Satellite Number": 322,
        "Semi-Major Axis(m)": 7083131.272910544,
        "Time(s)": 104
    },
    {
        "Altitude(m)": 714028.0024736242,
        "Argument of Periapsis(deg)": 0.00629454065576759,
        "Eccentricity": 0.0,
        "Inclination(deg)": 45.0,
        "Latitude(deg)": -35.805259502892255,
        "Longitude(deg)": -164.56629466192567,
        "Mean Anomaly(deg)": 235.46451972623942,
        "RAAN(deg)": 69.9940581376152,
        "Satellite Name": "Constellation 1 322",
        "Satellite Number": 322,
        "Semi-Major Axis(m)": 7083131.272910544,
        "Time(s)": 105
    },
    {
        "Altitude(m)": 714040.2042345388,
        "Argument of Periapsis(deg)": 0.006354488662012995,
        "Eccentricity": 0.0,
        "Inclination(deg)": 45.0,
        "Latitude(deg)": -35.83517912883224,
        "Longitude(deg)": -164.5055130058768,
        "Mean Anomaly(deg)": 235.52522086648935,
        "RAAN(deg)": 69.99400154844962,
        "Satellite Name": "Constellation 1 322",
        "Satellite Number": 322,
        "Semi-Major Axis(m)": 7083131.272910544,
        "Time(s)": 106
    },
    {
        "Altitude(m)": 714052.3936281396,
        "Argument of Periapsis(deg)": 0.006414436668258401,
        "Eccentricity": 0.0,
        "Inclination(deg)": 45.0,
        "Latitude(deg)": -35.8650634999516,
        "Longitude(deg)": -164.44468278440905,
        "Mean Anomaly(deg)": 235.58592200673917,
        "RAAN(deg)": 69.99394495928406,
        "Satellite Name": "Constellation 1 322",
        "Satellite Number": 322,
        "Semi-Major Axis(m)": 7083131.272910544,
        "Time(s)": 107
    },
    {
        "Altitude(m)": 714064.5706105314,
        "Argument of Periapsis(deg)": 0.0064743846745038075,
        "Eccentricity": 0.0,
        "Inclination(deg)": 45.0,
        "Latitude(deg)": -35.89491255221737,
        "Longitude(deg)": -164.38380396484732,
        "Mean Anomaly(deg)": 235.64662314698913,
        "RAAN(deg)": 69.9938883701185,
        "Satellite Name": "Constellation 1 322",
        "Satellite Number": 322,
        "Semi-Major Axis(m)": 7083131.272910544,
        "Time(s)": 108
    },
    {
        "Altitude(m)": 714076.735137847,
        "Argument of Periapsis(deg)": 0.0065343326807492125,
        "Eccentricity": 0.0,
        "Inclination(deg)": 45.0,
        "Latitude(deg)": -35.9247262215394,
        "Longitude(deg)": -164.32287651475173,
        "Mean Anomaly(deg)": 235.70732428723898,
        "RAAN(deg)": 69.99383178095292,
        "Satellite Name": "Constellation 1 322",
        "Satellite Number": 322,
        "Semi-Major Axis(m)": 7083131.272910544,
        "Time(s)": 109
    },
    {
        "Altitude(m)": 714088.8871662653,
        "Argument of Periapsis(deg)": 0.0065942806869946176,
        "Eccentricity": 0.0,
        "Inclination(deg)": 45.0,
        "Latitude(deg)": -35.95450444377088,
        "Longitude(deg)": -164.2619004019185,
        "Mean Anomaly(deg)": 235.76802542748896,
        "RAAN(deg)": 69.99377519178735,
        "Satellite Name": "Constellation 1 322",
        "Satellite Number": 322,
        "Semi-Major Axis(m)": 7083131.272910544,
        "Time(s)": 110
    },
    {
        "Altitude(m)": 714101.0266520082,
        "Argument of Periapsis(deg)": 0.006654228693240024,
        "Eccentricity": 0.0,
        "Inclination(deg)": 45.0,
        "Latitude(deg)": -35.984247154707916,
        "Longitude(deg)": -164.20087576247911,
        "Mean Anomaly(deg)": 235.8287265677388,
        "RAAN(deg)": 69.99371860262178,
        "Satellite Name": "Constellation 1 322",
        "Satellite Number": 322,
        "Semi-Major Axis(m)": 7083131.272910544,
        "Time(s)": 111
    },
    {
        "Altitude(m)": 714113.1535513306,
        "Argument of Periapsis(deg)": 0.006714176699485429,
        "Eccentricity": 0.0,
        "Inclination(deg)": 45.0,
        "Latitude(deg)": -36.013954290091256,
        "Longitude(deg)": -164.1398022285125,
        "Mean Anomaly(deg)": 235.88942770798866,
        "RAAN(deg)": 69.99366201345622,
        "Satellite Name": "Constellation 1 322",
        "Satellite Number": 322,
        "Semi-Major Axis(m)": 7083131.272910544,
        "Time(s)": 112
    },
    {
        "Altitude(m)": 714125.2678205381,
        "Argument of Periapsis(deg)": 0.006774124705730835,
        "Eccentricity": 0.0,
        "Inclination(deg)": 45.0,
        "Latitude(deg)": -36.04362578560471,
        "Longitude(deg)": -164.07867993662904,
        "Mean Anomaly(deg)": 235.9501288482386,
        "RAAN(deg)": 69.99360542429065,
        "Satellite Name": "Constellation 1 322",
        "Satellite Number": 322,
        "Semi-Major Axis(m)": 7083131.272910544,
        "Time(s)": 113
    }
]